QIANFAN-198             
1 69416U 26125R   26180.55652829  .00000408  00000+0  17795-3 0  9994
2 69416  88.9956 279.0299 0015567 134.3248 225.9222 14.22068879  3464
QIANFAN-199             
1 69417U 26125S   26180.54279856  .00000433  00000+0  18345-3 0  9999
2 69417  88.9956 279.0277 0017297 135.1647 225.0946 14.23632537  3468
QIANFAN-200             
1 69418U 26125T   26180.51593291  .00000399  00000+0  18191-3 0  9999
2 69418  88.9956 279.0424 0016322 133.4254 226.8298 14.19642387  3453
STARLINK-37537          
1 69420U 26126A   26180.56150080  .00176321  00000+0  11555-2 0  9998
2 69420  97.2819  41.1452 0001761 108.5852 251.5604 15.75255772  4698
STARLINK-37585          
1 69421U 26126B   26180.55091404  .00199553  00000+0  13037-2 0  9991
2 69421  97.2837  41.1610 0001303 107.1354 253.0054 15.75261207  4695
STARLINK-37573          
1 69422U 26126C   26180.56467706  .00268639  00000+0  17381-2 0  9993
2 69422  97.2827  41.1410 0001595 104.1888 255.9555 15.75293253  4698
STARLINK-37820          
1 69423U 26126D   26180.50003471 -.00114976  00000+0 -77926-3 0  9991
2 69423  97.2833  41.1920 0001436 100.9059 168.8806 15.75222777  4694
STARLINK-37822          
1 69424U 26126E   26180.40515850  .00195816  00000+0  12807-2 0  9996
2 69424  97.2830  41.0521 0001859  72.1491 287.9977 15.75245308  4672
STARLINK-37836          
1 69425U 26126F   26180.51143723  .00351252  00000+0  17459-2 0  9991
2 69425  97.2814  41.2150 0014075 206.8680 153.1860 15.80893503  4694
STARLINK-37850          
1 69426U 26126G   26180.50003471 -.00087524  00000+0 -59162-3 0  9994
2 69426  97.2829  41.1874 0001332  85.6590 172.1392 15.75202525  4747
STARLINK-37823          
1 69427U 26126H   26180.53856281  .00193340  00000+0  12644-2 0  9998
2 69427  97.2835  41.1767 0001316  98.0758 262.0657 15.75255577  4694
STARLINK-37834          
1 69428U 26126J   26180.54703220  .00214622  00000+0  13993-2 0  9999
2 69428  97.2827  41.1667 0001414 101.1686 258.9738 15.75266429  4692
STARLINK-37857          
1 69429U 26126K   26180.53573834  .00163244  00000+0  10724-2 0  9997
2 69429  97.2834  41.1812 0001359  92.9331 267.2090 15.75236464  4695
STARLINK-37866          
1 69430U 26126L   26180.25778299 -.00566891  00000+0 -34086-2 0  9994
2 69430  97.2816  40.9479 0002648 169.8885 190.2436 15.79110919  4704
STARLINK-37555          
1 69431U 26126M   26180.50003471 -.00079616  00000+0 -53777-3 0  9999
2 69431  97.2829  41.1736 0001271  98.2351 127.5711 15.75195187  4741
STARLINK-37870          
1 69432U 26126N   26180.50003471  .00031228  00000+0  20968-3 0  9991
2 69432  97.2832  41.1831 0001511  79.8332 165.9671 15.75166120  4693
STARLINK-37872          
1 69433U 26126P   26180.25711683  .00084199  00000+0  45293-3 0  9998
2 69433  97.2830  40.9503 0001584  72.3550 287.7891 15.79981494  4651
STARLINK-37815          
1 69434U 26126Q   26179.60188103  .00118467  00000+0  78274-3 0  9992
2 69434  97.2842  40.1552 0001107  82.3694 277.7697 15.75232023  4546
STARLINK-37801          
1 69435U 26126R   26180.54067979  .00249541  00000+0  16192-2 0  9993
2 69435  97.2839  41.1752 0001231 110.4750 249.6647 15.75279305  4749
STARLINK-37800          
1 69436U 26126S   26180.54279773  .00171613  00000+0  11256-2 0  9991
2 69436  97.2836  41.1718 0001538 105.7477 254.3958 15.75248261  4691
STARLINK-37792          
1 69437U 26126T   26180.50974234  .00299632  00000+0  15654-2 0  9990
2 69437  97.2820  41.2180 0001320 107.6521 252.4891 15.80049966  4747
STARLINK-37783          
1 69438U 26126U   26179.55933148  .00314526  00000+0  16404-2 0  9997
2 69438  97.2825  40.2145 0001459 108.4417 251.7010 15.80048111  4598
STARLINK-37771          
1 69439U 26126V   26180.55903181  .00265257  00000+0  17178-2 0  9999
2 69439  97.2821  41.1487 0001316 102.6605 257.4807 15.75281736  4695
STARLINK-37747          
1 69440U 26126W   26180.50003471 -.00109427  00000+0 -74134-3 0  9993
2 69440  97.2832  41.1630 0001307  87.6385 114.1624 15.75216638  4691
STARLINK-37629          
1 69443U 26127A   26180.48784223  .00109314  00000+0  70733-3 0  9999
2 69443  53.1579 201.2818 0001131  73.5317 286.5827 15.75263695  3349
STARLINK-37509          
1 69444U 26127B   26180.48363307  .00145451  00000+0  93553-3 0  9993
2 69444  53.1585 201.2527 0001181  77.1025 283.0127 15.75269693  3344
STARLINK-37641          
1 69445U 26127C   26180.46968709  .00117076  00000+0  75654-3 0  9993
2 69445  53.1575 201.1597 0001085  87.4939 272.6205 15.75264525  3341
STARLINK-37522          
1 69446U 26127D   26180.48330426  .00129376  00000+0  83428-3 0  9999
2 69446  53.1586 201.2507 0001177  72.7398 287.3751 15.75266936  3341
STARLINK-37640          
1 69447U 26127E   26180.50003471  .00031580  00000+0  20963-3 0  9994
2 69447  53.1588 200.8522 0001106  72.0829 177.4982 15.75214095  4626
