OBJECT_NAME,OBJECT_ID,EPOCH,MEAN_MOTION,ECCENTRICITY,INCLINATION,RA_OF_ASC_NODE,ARG_OF_PERICENTER,MEAN_ANOMALY,EPHEMERIS_TYPE,CLASSIFICATION_TYPE,NORAD_CAT_ID,ELEMENT_SET_NO,REV_AT_EPOCH,BSTAR,MEAN_MOTION_DOT,MEAN_MOTION_DDOT
QIANFAN-198,2026-125R,2026-06-29T13:21:24.044256,14.22068879,.0015567,88.9956,279.0299,134.3248,225.9222,0,U,69416,999,346,.17795E-3,.408E-5,0
QIANFAN-199,2026-125S,2026-06-29T13:01:37.795584,14.23632537,.0017297,88.9956,279.0277,135.1647,225.0946,0,U,69417,999,346,.18345E-3,.433E-5,0
QIANFAN-200,2026-125T,2026-06-29T12:22:56.603424,14.19642387,.0016322,88.9956,279.0424,133.4254,226.8298,0,U,69418,999,345,.18191E-3,.399E-5,0
STARLINK-37537,2026-126A,2026-06-29T13:28:33.669120,15.75255772,.0001761,97.2819,41.1452,108.5852,251.5604,0,U,69420,999,469,.11555E-2,.176321E-2,0
STARLINK-37585,2026-126B,2026-06-29T13:13:18.973056,15.75261207,.0001303,97.2837,41.1610,107.1354,253.0054,0,U,69421,999,469,.13037E-2,.199553E-2,0
STARLINK-37573,2026-126C,2026-06-29T13:33:08.097984,15.75293253,.0001595,97.2827,41.1410,104.1888,255.9555,0,U,69422,999,469,.17381E-2,.268639E-2,0
STARLINK-37820,2026-126D,2026-06-29T12:00:02.998944,15.75222777,.0001436,97.2833,41.1920,100.9059,168.8806,0,U,69423,999,469,-.77926E-3,-.114976E-2,0
STARLINK-37822,2026-126E,2026-06-29T09:43:25.694400,15.75245308,.0001859,97.2830,41.0521,72.1491,287.9977,0,U,69424,999,467,.12807E-2,.195816E-2,0
STARLINK-37836,2026-126F,2026-06-29T12:16:28.176672,15.80893503,.0014075,97.2814,41.2150,206.8680,153.1860,0,U,69425,999,469,.17459E-2,.351252E-2,0
STARLINK-37850,2026-126G,2026-06-29T12:00:02.998944,15.75202525,.0001332,97.2829,41.1874,85.6590,172.1392,0,U,69426,999,474,-.59162E-3,-.87524E-3,0
STARLINK-37823,2026-126H,2026-06-29T12:55:31.826784,15.75255577,.0001316,97.2835,41.1767,98.0758,262.0657,0,U,69427,999,469,.12644E-2,.19334E-2,0
STARLINK-37834,2026-126J,2026-06-29T13:07:43.582080,15.75266429,.0001414,97.2827,41.1667,101.1686,258.9738,0,U,69428,999,469,.13993E-2,.214622E-2,0
STARLINK-37857,2026-126K,2026-06-29T12:51:27.792576,15.75236464,.0001359,97.2834,41.1812,92.9331,267.2090,0,U,69429,999,469,.10724E-2,.163244E-2,0
STARLINK-37866,2026-126L,2026-06-29T06:11:12.450336,15.79110919,.0002648,97.2816,40.9479,169.8885,190.2436,0,U,69430,999,470,-.34086E-2,-.566891E-2,0
STARLINK-37555,2026-126M,2026-06-29T12:00:02.998944,15.75195187,.0001271,97.2829,41.1736,98.2351,127.5711,0,U,69431,999,474,-.53777E-3,-.79616E-3,0
STARLINK-37870,2026-126N,2026-06-29T12:00:02.998944,15.75166120,.0001511,97.2832,41.1831,79.8332,165.9671,0,U,69432,999,469,.20968E-3,.31228E-3,0
STARLINK-37872,2026-126P,2026-06-29T06:10:14.894112,15.79981494,.0001584,97.2830,40.9503,72.3550,287.7891,0,U,69433,999,465,.45293E-3,.84199E-3,0
STARLINK-37815,2026-126Q,2026-06-28T14:26:42.520992,15.75232023,.00011079,97.2842,40.1552,82.3694,277.7697,0,U,69434,999,454,.78273591E-3,.118467E-2,0
STARLINK-37801,2026-126R,2026-06-29T12:58:34.733856,15.75279305,.0001231,97.2839,41.1752,110.4750,249.6647,0,U,69435,999,474,.16192E-2,.249541E-2,0
STARLINK-37800,2026-126S,2026-06-29T13:01:37.723872,15.75248261,.0001538,97.2836,41.1718,105.7477,254.3958,0,U,69436,999,469,.11256E-2,.171613E-2,0
STARLINK-37792,2026-126T,2026-06-29T12:14:01.738176,15.80049966,.000132,97.2820,41.2180,107.6521,252.4891,0,U,69437,999,474,.15654E-2,.299632E-2,0
STARLINK-37783,2026-126U,2026-06-28T13:25:26.239872,15.80048111,.00014591,97.2825,40.2145,108.4417,251.7010,0,U,69438,999,459,.16404447E-2,.314526E-2,0
STARLINK-37771,2026-126V,2026-06-29T13:25:00.348384,15.75281736,.0001316,97.2821,41.1487,102.6605,257.4807,0,U,69439,999,469,.17178E-2,.265257E-2,0
STARLINK-37747,2026-126W,2026-06-29T12:00:02.998944,15.75216638,.0001307,97.2832,41.1630,87.6385,114.1624,0,U,69440,999,469,-.74134E-3,-.109427E-2,0
STARLINK-37629,2026-127A,2026-06-29T11:42:29.568672,15.75263695,.0001131,53.1579,201.2818,73.5317,286.5827,0,U,69443,999,334,.70733E-3,.109314E-2,0
STARLINK-37509,2026-127B,2026-06-29T11:36:25.897248,15.75269693,.0001181,53.1585,201.2527,77.1025,283.0127,0,U,69444,999,334,.93553E-3,.145451E-2,0
STARLINK-37641,2026-127C,2026-06-29T11:16:20.964576,15.75264525,.0001085,53.1575,201.1597,87.4939,272.6205,0,U,69445,999,334,.75654E-3,.117076E-2,0
STARLINK-37522,2026-127D,2026-06-29T11:35:57.488064,15.75266936,.0001177,53.1586,201.2507,72.7398,287.3751,0,U,69446,999,334,.83428E-3,.129376E-2,0
STARLINK-37640,2026-127E,2026-06-29T12:00:02.998944,15.75214095,.0001106,53.1588,200.8522,72.0829,177.4982,0,U,69447,999,462,.20963E-3,.3158E-3,0
